[{"OBJECT_NAME":"KUIPER-00181","OBJECT_ID":"2025-301E","EPOCH":"2026-03-09T10:43:15.830400","MEAN_MOTION":14.76425199,"ECCENTRICITY":0.0001938,"INCLINATION":51.9027,"RA_OF_ASC_NODE":78.1683,"ARG_OF_PERICENTER":92.8246,"MEAN_ANOMALY":267.2937,"EPHEMERIS_TYPE":0,"CLASSIFICATION_TYPE":"U","NORAD_CAT_ID":67137,"ELEMENT_SET_NO":999,"REV_AT_EPOCH":1369,"BSTAR":0.00049021368,"MEAN_MOTION_DOT":3.227e-5,"MEAN_MOTION_DDOT":0},{"OBJECT_NAME":"SL-18 DEB","OBJECT_ID":"1993-014D","EPOCH":"2026-03-09T21:34:16.235328","MEAN_MOTION":14.45090473,"ECCENTRICITY":0.01458576,"INCLINATION":75.7441,"RA_OF_ASC_NODE":240.5404,"ARG_OF_PERICENTER":18.118,"MEAN_ANOMALY":97.9512,"EPHEMERIS_TYPE":0,"CLASSIFICATION_TYPE":"U","NORAD_CAT_ID":22568,"ELEMENT_SET_NO":999,"REV_AT_EPOCH":72021,"BSTAR":0.00039982693,"MEAN_MOTION_DOT":1.577e-5,"MEAN_MOTION_DDOT":0}]
